ONEWEB-0018             
1 45434U 20020L   25213.15294913  .00000015  00000+0  78170-5 0  9994
2 45434  87.8808  84.8491 0001816  79.5468 280.5865 13.11419860260680
ONEWEB-0083             
1 45435U 20020M   25213.14276775 -.00000351  00000+0 -10252-2 0  9999
2 45435  87.8816  84.8370 0001711  78.2343 281.8977 13.11418774260724
ONEWEB-0095             
1 45436U 20020N   25213.13441275 -.00000457  00000+0 -13251-2 0  9997
2 45436  87.8803  84.8623 0001075  92.8364 267.2887 13.11419230260726
ONEWEB-0092             
1 45437U 20020P   25213.64040132  .00000392  00000+0  10699-2 0  9990
2 45437  87.8804  84.7495 0001546  84.6990 275.4314 13.11416439260905
ONEWEB-0085             
1 45438U 20020Q   25213.21143386 -.00000512  00000+0 -14792-2 0  9993
2 45438  87.8807  84.8476 0001615  83.0696 277.0616 13.11417187260737
ONEWEB-0096             
1 45439U 20020R   25213.60223935 -.00000412  00000+0 -11976-2 0  9996
2 45439  87.8818  84.7370 0001957  81.1059 279.0290 13.11418250260780
ONEWEB-0037             
1 45440U 20020S   25213.20127066 -.00000362  00000+0 -10567-2 0  9991
2 45440  87.8821  84.7810 0001682  82.6331 277.4988 13.11415463260755
ONEWEB-0042             
1 45441U 20020T   25213.21043738 -.00000423  00000+0 -12303-2 0  9994
2 45441  87.8812  84.8243 0001749  83.9085 276.2242 13.11420418260724
