<?xml version="1.0" encoding="UTF-8"?>
<ndm xmlns:xsi="http://www.w3.org/2001/XMLSchema-instance" xsi:noNamespaceSchemaLocation="https://sanaregistry.org/r/ndmxml_unqualified/ndmxml-2.0.0-master-2.0.xsd">
<omm id="CCSDS_OMM_VERS" version="2.0">
<header><CREATION_DATE/><ORIGINATOR/></header><body><segment><metadata><OBJECT_NAME>ONEWEB-0018</OBJECT_NAME><OBJECT_ID>2020-020L</OBJECT_ID><CENTER_NAME>EARTH</CENTER_NAME><REF_FRAME>TEME</REF_FRAME><TIME_SYSTEM>UTC</TIME_SYSTEM><MEAN_ELEMENT_THEORY>SGP4</MEAN_ELEMENT_THEORY></metadata><data><meanElements><EPOCH>2025-08-01T03:40:14.804832</EPOCH><MEAN_MOTION>13.11419860</MEAN_MOTION><ECCENTRICITY>.0001816</ECCENTRICITY><INCLINATION>87.8808</INCLINATION><RA_OF_ASC_NODE>84.8491</RA_OF_ASC_NODE><ARG_OF_PERICENTER>79.5468</ARG_OF_PERICENTER><MEAN_ANOMALY>280.5865</MEAN_ANOMALY></meanElements><tleParameters><EPHEMERIS_TYPE>0</EPHEMERIS_TYPE><CLASSIFICATION_TYPE>U</CLASSIFICATION_TYPE><NORAD_CAT_ID>45434</NORAD_CAT_ID><ELEMENT_SET_NO>999</ELEMENT_SET_NO><REV_AT_EPOCH>26068</REV_AT_EPOCH><BSTAR>.7817E-5</BSTAR><MEAN_MOTION_DOT>.15E-6</MEAN_MOTION_DOT><MEAN_MOTION_DDOT>0</MEAN_MOTION_DDOT></tleParameters></data></segment></body></omm>
<omm id="CCSDS_OMM_VERS" version="2.0">
<header><CREATION_DATE/><ORIGINATOR/></header><body><segment><metadata><OBJECT_NAME>ONEWEB-0083</OBJECT_NAME><OBJECT_ID>2020-020M</OBJECT_ID><CENTER_NAME>EARTH</CENTER_NAME><REF_FRAME>TEME</REF_FRAME><TIME_SYSTEM>UTC</TIME_SYSTEM><MEAN_ELEMENT_THEORY>SGP4</MEAN_ELEMENT_THEORY></metadata><data><meanElements><EPOCH>2025-08-01T03:25:35.133600</EPOCH><MEAN_MOTION>13.11418774</MEAN_MOTION><ECCENTRICITY>.0001711</ECCENTRICITY><INCLINATION>87.8816</INCLINATION><RA_OF_ASC_NODE>84.8370</RA_OF_ASC_NODE><ARG_OF_PERICENTER>78.2343</ARG_OF_PERICENTER><MEAN_ANOMALY>281.8977</MEAN_ANOMALY></meanElements><tleParameters><EPHEMERIS_TYPE>0</EPHEMERIS_TYPE><CLASSIFICATION_TYPE>U</CLASSIFICATION_TYPE><NORAD_CAT_ID>45435</NORAD_CAT_ID><ELEMENT_SET_NO>999</ELEMENT_SET_NO><REV_AT_EPOCH>26072</REV_AT_EPOCH><BSTAR>-.10252E-2</BSTAR><MEAN_MOTION_DOT>-.351E-5</MEAN_MOTION_DOT><MEAN_MOTION_DDOT>0</MEAN_MOTION_DDOT></tleParameters></data></segment></body></omm>
<omm id="CCSDS_OMM_VERS" version="2.0">
<header><CREATION_DATE/><ORIGINATOR/></header><body><segment><metadata><OBJECT_NAME>ONEWEB-0095</OBJECT_NAME><OBJECT_ID>2020-020N</OBJECT_ID><CENTER_NAME>EARTH</CENTER_NAME><REF_FRAME>TEME</REF_FRAME><TIME_SYSTEM>UTC</TIME_SYSTEM><MEAN_ELEMENT_THEORY>SGP4</MEAN_ELEMENT_THEORY></metadata><data><meanElements><EPOCH>2025-08-01T03:13:33.261600</EPOCH><MEAN_MOTION>13.11419230</MEAN_MOTION><ECCENTRICITY>.0001075</ECCENTRICITY><INCLINATION>87.8803</INCLINATION><RA_OF_ASC_NODE>84.8623</RA_OF_ASC_NODE><ARG_OF_PERICENTER>92.8364</ARG_OF_PERICENTER><MEAN_ANOMALY>267.2887</MEAN_ANOMALY></meanElements><tleParameters><EPHEMERIS_TYPE>0</EPHEMERIS_TYPE><CLASSIFICATION_TYPE>U</CLASSIFICATION_TYPE><NORAD_CAT_ID>45436</NORAD_CAT_ID><ELEMENT_SET_NO>999</ELEMENT_SET_NO><REV_AT_EPOCH>26072</REV_AT_EPOCH><BSTAR>-.13251E-2</BSTAR><MEAN_MOTION_DOT>-.457E-5</MEAN_MOTION_DOT><MEAN_MOTION_DDOT>0</MEAN_MOTION_DDOT></tleParameters></data></segment></body></omm>
<omm id="CCSDS_OMM_VERS" version="2.0">
<header><CREATION_DATE/><ORIGINATOR/></header><body><segment><metadata><OBJECT_NAME>ONEWEB-0092</OBJECT_NAME><OBJECT_ID>2020-020P</OBJECT_ID><CENTER_NAME>EARTH</CENTER_NAME><REF_FRAME>TEME</REF_FRAME><TIME_SYSTEM>UTC</TIME_SYSTEM><MEAN_ELEMENT_THEORY>SGP4</MEAN_ELEMENT_THEORY></metadata><data><meanElements><EPOCH>2025-08-01T15:22:10.674048</EPOCH><MEAN_MOTION>13.11416439</MEAN_MOTION><ECCENTRICITY>.0001546</ECCENTRICITY><INCLINATION>87.8804</INCLINATION><RA_OF_ASC_NODE>84.7495</RA_OF_ASC_NODE><ARG_OF_PERICENTER>84.6990</ARG_OF_PERICENTER><MEAN_ANOMALY>275.4314</MEAN_ANOMALY></meanElements><tleParameters><EPHEMERIS_TYPE>0</EPHEMERIS_TYPE><CLASSIFICATION_TYPE>U</CLASSIFICATION_TYPE><NORAD_CAT_ID>45437</NORAD_CAT_ID><ELEMENT_SET_NO>999</ELEMENT_SET_NO><REV_AT_EPOCH>26090</REV_AT_EPOCH><BSTAR>.10699E-2</BSTAR><MEAN_MOTION_DOT>.392E-5</MEAN_MOTION_DOT><MEAN_MOTION_DDOT>0</MEAN_MOTION_DDOT></tleParameters></data></segment></body></omm>
<omm id="CCSDS_OMM_VERS" version="2.0">
<header><CREATION_DATE/><ORIGINATOR/></header><body><segment><metadata><OBJECT_NAME>ONEWEB-0085</OBJECT_NAME><OBJECT_ID>2020-020Q</OBJECT_ID><CENTER_NAME>EARTH</CENTER_NAME><REF_FRAME>TEME</REF_FRAME><TIME_SYSTEM>UTC</TIME_SYSTEM><MEAN_ELEMENT_THEORY>SGP4</MEAN_ELEMENT_THEORY></metadata><data><meanElements><EPOCH>2025-08-01T05:04:27.885504</EPOCH><MEAN_MOTION>13.11417187</MEAN_MOTION><ECCENTRICITY>.0001615</ECCENTRICITY><INCLINATION>87.8807</INCLINATION><RA_OF_ASC_NODE>84.8476</RA_OF_ASC_NODE><ARG_OF_PERICENTER>83.0696</ARG_OF_PERICENTER><MEAN_ANOMALY>277.0616</MEAN_ANOMALY></meanElements><tleParameters><EPHEMERIS_TYPE>0</EPHEMERIS_TYPE><CLASSIFICATION_TYPE>U</CLASSIFICATION_TYPE><NORAD_CAT_ID>45438</NORAD_CAT_ID><ELEMENT_SET_NO>999</ELEMENT_SET_NO><REV_AT_EPOCH>26073</REV_AT_EPOCH><BSTAR>-.14792E-2</BSTAR><MEAN_MOTION_DOT>-.512E-5</MEAN_MOTION_DOT><MEAN_MOTION_DDOT>0</MEAN_MOTION_DDOT></tleParameters></data></segment></body></omm>
<omm id="CCSDS_OMM_VERS" version="2.0">
<header><CREATION_DATE/><ORIGINATOR/></header><body><segment><metadata><OBJECT_NAME>ONEWEB-0096</OBJECT_NAME><OBJECT_ID>2020-020R</OBJECT_ID><CENTER_NAME>EARTH</CENTER_NAME><REF_FRAME>TEME</REF_FRAME><TIME_SYSTEM>UTC</TIME_SYSTEM><MEAN_ELEMENT_THEORY>SGP4</MEAN_ELEMENT_THEORY></metadata><data><meanElements><EPOCH>2025-08-01T14:27:13.479840</EPOCH><MEAN_MOTION>13.11418250</MEAN_MOTION><ECCENTRICITY>.0001957</ECCENTRICITY><INCLINATION>87.8818</INCLINATION><RA_OF_ASC_NODE>84.7370</RA_OF_ASC_NODE><ARG_OF_PERICENTER>81.1059</ARG_OF_PERICENTER><MEAN_ANOMALY>279.0290</MEAN_ANOMALY></meanElements><tleParameters><EPHEMERIS_TYPE>0</EPHEMERIS_TYPE><CLASSIFICATION_TYPE>U</CLASSIFICATION_TYPE><NORAD_CAT_ID>45439</NORAD_CAT_ID><ELEMENT_SET_NO>999</ELEMENT_SET_NO><REV_AT_EPOCH>26078</REV_AT_EPOCH><BSTAR>-.11976E-2</BSTAR><MEAN_MOTION_DOT>-.412E-5</MEAN_MOTION_DOT><MEAN_MOTION_DDOT>0</MEAN_MOTION_DDOT></tleParameters></data></segment></body></omm>
<omm id="CCSDS_OMM_VERS" version="2.0">
<header><CREATION_DATE/><ORIGINATOR/></header><body><segment><metadata><OBJECT_NAME>ONEWEB-0037</OBJECT_NAME><OBJECT_ID>2020-020S</OBJECT_ID><CENTER_NAME>EARTH</CENTER_NAME><REF_FRAME>TEME</REF_FRAME><TIME_SYSTEM>UTC</TIME_SYSTEM><MEAN_ELEMENT_THEORY>SGP4</MEAN_ELEMENT_THEORY></metadata><data><meanElements><EPOCH>2025-08-01T04:49:49.785024</EPOCH><MEAN_MOTION>13.11415463</MEAN_MOTION><ECCENTRICITY>.0001682</ECCENTRICITY><INCLINATION>87.8821</INCLINATION><RA_OF_ASC_NODE>84.7810</RA_OF_ASC_NODE><ARG_OF_PERICENTER>82.6331</ARG_OF_PERICENTER><MEAN_ANOMALY>277.4988</MEAN_ANOMALY></meanElements><tleParameters><EPHEMERIS_TYPE>0</EPHEMERIS_TYPE><CLASSIFICATION_TYPE>U</CLASSIFICATION_TYPE><NORAD_CAT_ID>45440</NORAD_CAT_ID><ELEMENT_SET_NO>999</ELEMENT_SET_NO><REV_AT_EPOCH>26075</REV_AT_EPOCH><BSTAR>-.10567E-2</BSTAR><MEAN_MOTION_DOT>-.362E-5</MEAN_MOTION_DOT><MEAN_MOTION_DDOT>0</MEAN_MOTION_DDOT></tleParameters></data></segment></body></omm>
<omm id="CCSDS_OMM_VERS" version="2.0">
<header><CREATION_DATE/><ORIGINATOR/></header><body><segment><metadata><OBJECT_NAME>ONEWEB-0042</OBJECT_NAME><OBJECT_ID>2020-020T</OBJECT_ID><CENTER_NAME>EARTH</CENTER_NAME><REF_FRAME>TEME</REF_FRAME><TIME_SYSTEM>UTC</TIME_SYSTEM><MEAN_ELEMENT_THEORY>SGP4</MEAN_ELEMENT_THEORY></metadata><data><meanElements><EPOCH>2025-08-01T05:03:01.789632</EPOCH><MEAN_MOTION>13.11420418</MEAN_MOTION><ECCENTRICITY>.0001749</ECCENTRICITY><INCLINATION>87.8812</INCLINATION><RA_OF_ASC_NODE>84.8243</RA_OF_ASC_NODE><ARG_OF_PERICENTER>83.9085</ARG_OF_PERICENTER><MEAN_ANOMALY>276.2242</MEAN_ANOMALY></meanElements><tleParameters><EPHEMERIS_TYPE>0</EPHEMERIS_TYPE><CLASSIFICATION_TYPE>U</CLASSIFICATION_TYPE><NORAD_CAT_ID>45441</NORAD_CAT_ID><ELEMENT_SET_NO>999</ELEMENT_SET_NO><REV_AT_EPOCH>26072</REV_AT_EPOCH><BSTAR>-.12303E-2</BSTAR><MEAN_MOTION_DOT>-.423E-5</MEAN_MOTION_DOT><MEAN_MOTION_DDOT>0</MEAN_MOTION_DDOT></tleParameters></data></segment></body></omm>

</ndm>
